LANDSAT 9               
1 49260U 21088A   22172.16676058  .00000181  00000+0  50313-4 0  9998
2 49260  98.2272 242.3385 0000940  80.9338 279.1967 14.57075918 38812
